{"version": 0.6, "generator": "Overpass API 0.7.60.6 e2dc3e5b", "osm3s": {"timestamp_osm_base": "2023-06-12T11:18:36Z", "copyright": "The data included in this document is from www.openstreetmap.org. The data is made available under ODbL."}, "elements": [{"type": "node", "id": 3587325293, "lat": 27.8053274, "lon": 75.0312456, "tags": {"highway": "bus_stop"}}, {"type": "node", "id": 4839782424, "lat": 27.7132614, "lon": 75.0821723, "tags": {"highway": "bus_stop", "name": "Rasidpura", "name:en": "Rasidpura", "name:hi": "\u0930\u0938\u0940\u0926\u092a\u0941\u0930\u093e"}}, {"type": "node", "id": 8844270253, "lat": 27.6209222, "lon": 75.1557059, "tags": {"bus": "yes", "highway": "bus_stop", "name": "sikar bus stop", "public_transport": "platform"}}, {"type": "node", "id": 8909916460, "lat": 27.6219653, "lon": 75.1595824, "tags": {"bus": "yes", "highway": "bus_stop", "name": "BUS Stop -1", "public_transport": "platform"}}, {"type": "node", "id": 9455561252, "lat": 27.4606666, "lon": 75.0805549, "tags": {"bus": "yes", "highway": "bus_stop", "name": "Badalwas kheli stand", "name:hi": "\u0916\u0947\u0932\u0940 \u0938\u094d\u091f\u0948\u0923\u094d\u0921 \u092c\u093e\u0921\u0932\u0935\u093e\u0938", "public_transport": "platform", "shelter": "no"}}, {"type": "node", "id": 9523696896, "lat": 27.4448227, "lon": 75.0743095, "tags": {"bus": "yes", "highway": "bus_stop", "name": "Kawarpura Bus stend  (Badalwas)", "public_transport": "platform"}}, {"type": "node", "id": 10957503267, "lat": 27.8729687, "lon": 75.0846692, "tags": {"bus": "yes", "highway": "bus_stop", "name": "bus stand", "public_transport": "platform"}}]}