{"version": 0.6, "generator": "Overpass API 0.7.60.6 e2dc3e5b", "osm3s": {"timestamp_osm_base": "2023-06-12T11:19:39Z", "copyright": "The data included in this document is from www.openstreetmap.org. The data is made available under ODbL."}, "elements": [{"type": "node", "id": 4390584390, "lat": 29.5817618, "lon": 76.97846, "tags": {"highway": "bus_stop", "name:en": "Karnal Toll Plaza Bus stop", "operator": "Panchkula cab"}}, {"type": "node", "id": 8120310622, "lat": 29.3943401, "lon": 76.9685776, "tags": {"bus": "yes", "highway": "bus_stop", "name": "Red Light Chowk", "public_transport": "platform"}}, {"type": "node", "id": 8120321074, "lat": 29.3873319, "lon": 76.9798975, "tags": {"bus": "yes", "highway": "bus_stop", "name": "Bhim Goda chowk", "public_transport": "platform"}}, {"type": "node", "id": 8120371662, "lat": 29.4066969, "lon": 76.9734962, "tags": {"bus": "yes", "highway": "bus_stop", "name": "Jattu ram chowk", "public_transport": "platform"}}, {"type": "node", "id": 8120375245, "lat": 29.3816937, "lon": 76.9488705, "tags": {"bus": "yes", "highway": "bus_stop", "public_transport": "platform"}}]}