{"version": 0.6, "generator": "Overpass API 0.7.60.6 e2dc3e5b", "osm3s": {"timestamp_osm_base": "2023-06-12T11:19:39Z", "copyright": "The data included in this document is from www.openstreetmap.org. The data is made available under ODbL."}, "elements": [{"type": "node", "id": 496712234, "lat": 28.7816996, "lon": 77.1410657, "tags": {"bench": "yes", "highway": "bus_stop", "name": "Budh Pur", "shelter": "yes"}}, {"type": "node", "id": 762031681, "lat": 28.7960727, "lon": 77.0359206, "tags": {"highway": "bus_stop"}}, {"type": "node", "id": 762031682, "lat": 28.7976522, "lon": 77.0352983, "tags": {"highway": "bus_stop"}}, {"type": "node", "id": 762031684, "lat": 28.7944273, "lon": 77.0302075, "tags": {"highway": "bus_stop"}}, {"type": "node", "id": 762031827, "lat": 28.8000027, "lon": 77.0355773, "tags": {"highway": "bus_stop", "name": "Bawana Main bus stop"}}, {"type": "node", "id": 3012220510, "lat": 28.7596174, "lon": 77.1311827, "tags": {"highway": "bus_stop", "name": "Siraspur Bus Stand", "operator": "DTC", "shelter": "no"}}, {"type": "node", "id": 4781811921, "lat": 29.1638611, "lon": 76.969543, "tags": {"highway": "bus_stop", "name": "Kheri gujjar", "name:en": "Kheri gujjar", "name:hi": "Kheri gujjar"}}, {"type": "node", "id": 5401301622, "lat": 28.7415613, "lon": 77.1201005, "tags": {"highway": "bus_stop", "name": "Bus Stop Sec-16 Rohini"}}, {"type": "node", "id": 5818161572, "lat": 28.7376117, "lon": 77.1682167, "tags": {"bench": "no", "bus": "yes", "highway": "bus_stop", "name": "Bhalswa Crossing", "public_transport": "platform", "shelter": "no"}}, {"type": "node", "id": 6499076102, "lat": 28.7391292, "lon": 77.1538831, "tags": {"bench": "yes", "bus": "yes", "highway": "bus_stop", "name": "Sanjay Gandhi Transport Nagar", "public_transport": "platform", "shelter": "yes"}}, {"type": "node", "id": 6499076104, "lat": 28.7392763, "lon": 77.1538754, "tags": {"bench": "yes", "bus": "yes", "highway": "bus_stop", "name": "Sanjay Gandhi Transport Nagar", "public_transport": "platform", "shelter": "yes"}}, {"type": "node", "id": 6501871247, "lat": 28.8359752, "lon": 77.1282719, "tags": {"bench": "no", "bus": "yes", "highway": "bus_stop", "name": "Tikri Khurd", "name:hi": "\u091f\u0940\u0915\u0930\u0940 \u0916\u0941\u0930\u094d\u0926", "network": "DTC", "public_transport": "platform", "shelter": "no", "tactile_paving": "no"}}]}