{"version": 0.6, "generator": "Overpass API 0.7.60 f4c14d41", "osm3s": {"timestamp_osm_base": "2023-05-17T15:24:09Z", "copyright": "The data included in this document is from www.openstreetmap.org. The data is made available under ODbL."}, "elements": [{"type": "node", "id": 316742974, "lat": 26.9123361, "lon": 75.8161415, "tags": {"bus": "yes", "highway": "bus_stop", "name": "Maharani College", "public_transport": "platform"}}, {"type": "node", "id": 316943439, "lat": 26.9244477, "lon": 75.8186598, "tags": {"bus": "yes", "highway": "bus_stop", "name": "Choti Chaupar", "public_transport": "platform"}}, {"type": "node", "id": 1812540125, "lat": 26.9153191, "lon": 75.8169299, "tags": {"bus": "yes", "highway": "bus_stop", "name": "Ajmeri Gate", "public_transport": "platform"}}, {"type": "node", "id": 2106256089, "lat": 26.9153051, "lon": 75.8242565, "tags": {"bus": "yes", "bus_routes": "3, 3B, 14, 27, 32, AC 1, AC 2, AC 5, Mini 34, Mini 38", "highway": "bus_stop", "name": "Sanganeri Gate", "public_transport": "platform"}}, {"type": "node", "id": 3266671377, "lat": 26.9164568, "lon": 75.8186365, "tags": {"bus": "yes", "bus_routes": "3, 3B, 14", "highway": "bus_stop", "name": "Ajmeri Gate", "public_transport": "platform"}}, {"type": "node", "id": 4727706596, "lat": 26.9168716, "lon": 75.815879, "tags": {"bus": "yes", "highway": "bus_stop", "name": "Ajmeri Gate", "public_transport": "platform"}}, {"type": "node", "id": 5403055418, "lat": 26.9228478, "lon": 75.8266029, "tags": {"bus": "yes", "highway": "bus_stop", "name": "Badi Chaupar", "public_transport": "platform"}}, {"type": "node", "id": 6976254821, "lat": 26.9117553, "lon": 75.815876, "tags": {"bus": "yes", "highway": "bus_stop", "name": "Maharani College", "public_transport": "platform"}}, {"type": "node", "id": 6976254823, "lat": 26.9161667, "lon": 75.817055, "tags": {"bus": "yes", "bus_routes": "3, 3A, 3B, 27, 32, AC 1, AC 5", "highway": "bus_stop", "name": "Ajmeri Gate", "public_transport": "platform"}}, {"type": "node", "id": 8035833208, "lat": 26.9228801, "lon": 75.8274289, "tags": {"bus": "yes", "highway": "bus_stop", "name": "Badi Chopad", "public_transport": "platform"}}, {"type": "node", "id": 8039165440, "lat": 26.916051, "lon": 75.820333, "tags": {"bus": "yes", "highway": "bus_stop", "name": "New Gate Circle", "public_transport": "platform"}}, {"type": "node", "id": 8039165441, "lat": 26.9158205, "lon": 75.8208977, "tags": {"bus": "yes", "highway": "bus_stop", "name": "New Gate Circle", "public_transport": "platform"}}, {"type": "node", "id": 8039165456, "lat": 26.9227816, "lon": 75.8269836, "tags": {"bus": "yes", "highway": "bus_stop", "public_transport": "platform"}}, {"type": "node", "id": 8039924156, "lat": 26.9237773, "lon": 75.8231508, "tags": {"bus": "yes", "highway": "bus_stop", "name": "Tripolia Gate", "public_transport": "platform"}}, {"type": "node", "id": 8039924157, "lat": 26.923847, "lon": 75.8223385, "tags": {"bus": "yes", "highway": "bus_stop", "name": "Tripolia Gate", "public_transport": "platform"}}, {"type": "node", "id": 8075691875, "lat": 26.916275, "lon": 75.8102777, "tags": {"bus": "yes", "highway": "bus_stop", "name": "Paach Batti", "public_transport": "platform"}}, {"type": "node", "id": 8137399286, "lat": 26.9152105, "lon": 75.8235805, "tags": {"bus": "yes", "highway": "bus_stop", "name": "Sanganeri Gate", "public_transport": "platform"}}]}