{"version": 0.6, "generator": "Overpass API 0.7.60.6 e2dc3e5b", "osm3s": {"timestamp_osm_base": "2023-06-12T11:19:39Z", "copyright": "The data included in this document is from www.openstreetmap.org. The data is made available under ODbL."}, "elements": [{"type": "node", "id": 928479041, "lat": 30.6797705, "lon": 75.948835, "tags": {"bench": "yes", "highway": "bus_stop", "name": "Dhaul Khurd  Bus Stop", "shelter": "yes"}}, {"type": "node", "id": 928479268, "lat": 30.6776156, "lon": 75.9497727, "tags": {"bench": "no", "highway": "bus_stop", "name": "Bus Stop Dhaul Khurd", "shelter": "yes"}}, {"type": "node", "id": 928527403, "lat": 30.7007897, "lon": 75.9519209, "tags": {"highway": "bus_stop", "name": "main gate village zirakh and bus stop"}}, {"type": "node", "id": 1411826866, "lat": 30.5407613, "lon": 75.8808599, "tags": {"highway": "bus_stop", "name": "Malerkotla"}}, {"type": "node", "id": 1462910938, "lat": 30.5212963, "lon": 75.8797945, "tags": {"highway": "bus_stop", "name": "Bus Stand", "shelter": "yes"}}, {"type": "node", "id": 2373011788, "lat": 30.7040099, "lon": 76.2752194, "tags": {"highway": "bus_stop"}}, {"type": "node", "id": 3300123709, "lat": 30.6143473, "lon": 75.8772737, "tags": {"highway": "bus_stop", "name": "Kup Kalan"}}, {"type": "node", "id": 10151270641, "lat": 30.6958356, "lon": 75.9502977, "tags": {"bench": "yes", "highway": "bus_stop", "name": "bus stop zirakh", "shelter": "yes", "tactile_paving": "no"}}]}