{"version": 0.6, "generator": "Overpass API 0.7.60.6 e2dc3e5b", "osm3s": {"timestamp_osm_base": "2023-06-12T11:18:36Z", "copyright": "The data included in this document is from www.openstreetmap.org. The data is made available under ODbL."}, "elements": [{"type": "node", "id": 4683675146, "lat": 29.9609995, "lon": 75.7096423, "tags": {"highway": "bus_stop", "name": "Haryau"}}, {"type": "node", "id": 4683679834, "lat": 29.9624734, "lon": 75.7036816, "tags": {"highway": "bus_stop", "name": "Haryau Junction Bus Stop"}}, {"type": "node", "id": 4683680163, "lat": 29.9668362, "lon": 75.7062976, "tags": {"highway": "bus_stop", "name": "Haryau"}}, {"type": "node", "id": 4809622922, "lat": 30.0545239, "lon": 75.3577517, "tags": {"highway": "bus_stop", "name:en": "Bhaini Bagha", "operator": "surjit singh"}}, {"type": "node", "id": 8587251317, "lat": 29.7001533, "lon": 75.5146058, "tags": {"highway": "bus_stop", "name": "\u0932\u093e\u0939\u0932\u0940", "name:en": "Lahli"}}, {"type": "node", "id": 8589945717, "lat": 29.7361755, "lon": 75.4522971, "tags": {"highway": "bus_stop", "name": "\u0915\u0932\u094b\u0920\u093e", "name:en": "KALOTHA"}}]}