{"version": 0.6, "generator": "Overpass API 0.7.60.6 e2dc3e5b", "osm3s": {"timestamp_osm_base": "2023-06-12T11:19:39Z", "copyright": "The data included in this document is from www.openstreetmap.org. The data is made available under ODbL."}, "elements": [{"type": "node", "id": 786858173, "lat": 28.4880005, "lon": 77.5056011, "tags": {"highway": "bus_stop"}}, {"type": "node", "id": 786858189, "lat": 28.4820079, "lon": 77.5032798, "tags": {"bus": "yes", "highway": "bus_stop", "public_transport": "platform"}}, {"type": "node", "id": 786858346, "lat": 28.4884485, "lon": 77.504892, "tags": {"highway": "bus_stop"}}, {"type": "node", "id": 786858352, "lat": 28.4908037, "lon": 77.4995993, "tags": {"highway": "bus_stop"}}, {"type": "node", "id": 786858417, "lat": 28.4808865, "lon": 77.4982925, "tags": {"highway": "bus_stop"}}, {"type": "node", "id": 786858429, "lat": 28.4883575, "lon": 77.4965608, "tags": {"highway": "bus_stop"}}, {"type": "node", "id": 786858526, "lat": 28.4810812, "lon": 77.4986355, "tags": {"highway": "bus_stop"}}, {"type": "node", "id": 786858531, "lat": 28.4886809, "lon": 77.4963829, "tags": {"highway": "bus_stop"}}, {"type": "node", "id": 786858623, "lat": 28.4818889, "lon": 77.5036628, "tags": {"bus": "yes", "highway": "bus_stop", "public_transport": "platform"}}, {"type": "node", "id": 1153087430, "lat": 28.6389958, "lon": 77.3785367, "tags": {"highway": "bus_stop", "name": "Shipra for IGI bus"}}, {"type": "node", "id": 1818031104, "lat": 28.4415226, "lon": 77.5382458, "tags": {"bus": "yes", "highway": "bus_stop", "public_transport": "platform"}}, {"type": "node", "id": 1818031169, "lat": 28.4464331, "lon": 77.5434839, "tags": {"highway": "bus_stop"}}, {"type": "node", "id": 1818031210, "lat": 28.4487582, "lon": 77.5325827, "tags": {"bus": "yes", "highway": "bus_stop", "public_transport": "platform"}}, {"type": "node", "id": 1818031218, "lat": 28.4492622, "lon": 77.5476006, "tags": {"highway": "bus_stop"}}, {"type": "node", "id": 1818031222, "lat": 28.4501403, "lon": 77.5499203, "tags": {"highway": "bus_stop"}}, {"type": "node", "id": 1818031236, "lat": 28.4509362, "lon": 77.5363898, "tags": {"bus": "yes", "highway": "bus_stop", "public_transport": "platform"}}, {"type": "node", "id": 1818031239, "lat": 28.4513954, "lon": 77.5435935, "tags": {"highway": "bus_stop"}}, {"type": "node", "id": 1818031241, "lat": 28.4518509, "lon": 77.5385789, "tags": {"bus": "yes", "highway": "bus_stop", "public_transport": "platform"}}, {"type": "node", "id": 1818031244, "lat": 28.4524096, "lon": 77.5432233, "tags": {"highway": "bus_stop"}}, {"type": "node", "id": 1818031248, "lat": 28.4534566, "lon": 77.554942, "tags": {"highway": "bus_stop"}}, {"type": "node", "id": 1818031253, "lat": 28.453721, "lon": 77.5561675, "tags": {"highway": "bus_stop"}}, {"type": "node", "id": 1818031271, "lat": 28.4560535, "lon": 77.5401565, "tags": {"bus": "yes", "highway": "bus_stop", "public_transport": "platform"}}, {"type": "node", "id": 1818031274, "lat": 28.4561868, "lon": 77.5404378, "tags": {"bus": "yes", "highway": "bus_stop", "public_transport": "platform"}}, {"type": "node", "id": 1818031309, "lat": 28.4583933, "lon": 77.5635842, "tags": {"bus": "yes", "highway": "bus_stop", "public_transport": "platform"}}, {"type": "node", "id": 1818031320, "lat": 28.4633401, "lon": 77.5277834, "tags": {"bus": "yes", "highway": "bus_stop", "public_transport": "platform"}}, {"type": "node", "id": 1818031322, "lat": 28.4634234, "lon": 77.5273763, "tags": {"bus": "yes", "highway": "bus_stop", "public_transport": "platform"}}, {"type": "node", "id": 1818031354, "lat": 28.4753268, "lon": 77.5635906, "tags": {"bus": "yes", "highway": "bus_stop", "public_transport": "platform"}}, {"type": "node", "id": 3938016340, "lat": 28.4704537, "lon": 77.5662746, "tags": {"bus": "yes", "highway": "bus_stop", "public_transport": "platform"}}, {"type": "node", "id": 4329066107, "lat": 28.6280788, "lon": 77.3552196, "tags": {"highway": "bus_stop", "name": "NIB"}}, {"type": "node", "id": 5171568582, "lat": 28.6183296, "lon": 77.3739086, "tags": {"bench": "no", "bus": "yes", "highway": "bus_stop", "name": "Fortis Hospital", "public_transport": "platform", "shelter": "no"}}, {"type": "node", "id": 5171568583, "lat": 28.6183686, "lon": 77.3735841, "tags": {"bench": "no", "bus": "yes", "highway": "bus_stop", "name": "Fortis Hospital", "public_transport": "platform", "shelter": "no"}}, {"type": "node", "id": 5769516273, "lat": 28.62549, "lon": 77.3742179, "tags": {"bench": "no", "bus": "yes", "highway": "bus_stop", "name": "Sector 62", "public_transport": "platform", "shelter": "no"}}, {"type": "node", "id": 5769516274, "lat": 28.6291554, "lon": 77.3742248, "tags": {"bench": "no", "bus": "yes", "highway": "bus_stop", "name": "Sector 62", "public_transport": "platform", "shelter": "no"}}, {"type": "node", "id": 5880868530, "lat": 28.6336163, "lon": 77.3603526, "tags": {"bench": "yes", "bus": "yes", "highway": "bus_stop", "public_transport": "platform", "shelter": "yes"}}, {"type": "node", "id": 6274736854, "lat": 28.5580823, "lon": 77.3300457, "tags": {"bench": "yes", "bus": "yes", "highway": "bus_stop", "public_transport": "platform", "shelter": "yes"}}, {"type": "node", "id": 6274736857, "lat": 28.5613968, "lon": 77.3383521, "tags": {"bus": "yes", "highway": "bus_stop", "public_transport": "platform"}}, {"type": "node", "id": 6274848323, "lat": 28.5625199, "lon": 77.3401813, "tags": {"bench": "no", "bus": "yes", "highway": "bus_stop", "name": "Noida Sector 37", "public_transport": "platform", "shelter": "no"}}, {"type": "node", "id": 6395753659, "lat": 28.6061264, "lon": 77.333949, "tags": {"bus": "yes", "disused:bench": "yes", "highway": "bus_stop", "name": "Bharti Public School", "name:hi": "\u092d\u093e\u0930\u0924\u0940 \u092a\u092c\u0932\u093f\u0915 \u0938\u094d\u0915\u0942\u0932", "public_transport": "platform", "shelter": "yes", "tactile_paving": "no"}}, {"type": "node", "id": 6395753673, "lat": 28.6087298, "lon": 77.3372115, "tags": {"bench": "yes", "bus": "yes", "highway": "bus_stop", "name": "Mayur Vihar Phase 3 A-1 Block", "public_transport": "platform", "shelter": "yes", "tactile_paving": "no"}}, {"type": "node", "id": 6395753675, "lat": 28.6117963, "lon": 77.3398531, "tags": {"addr:postcode": "110096", "bench": "yes", "bus": "yes", "highway": "bus_stop", "name": "CRPF Camp Mayur Vihar Phase 3", "public_transport": "platform", "shelter": "yes", "tactile_paving": "no"}}, {"type": "node", "id": 6395824648, "lat": 28.608463, "lon": 77.3373236, "tags": {"bench": "yes", "bus": "yes", "highway": "bus_stop", "name": "Mayur Vihar Phase 3 A-1 Block", "public_transport": "platform", "shelter": "yes", "tactile_paving": "no"}}, {"type": "node", "id": 6395824652, "lat": 28.6114671, "lon": 77.3398765, "tags": {"addr:postcode": "110096", "bench": "yes", "bus": "yes", "highway": "bus_stop", "name": "CRPF Camp Mayur Vihar Phase 3", "public_transport": "platform", "shelter": "yes", "tactile_paving": "no"}}, {"type": "node", "id": 6395824656, "lat": 28.6052972, "lon": 77.3331155, "tags": {"bench": "yes", "bus": "yes", "highway": "bus_stop", "name": "Bharti Public School", "name:hi": "\u092d\u093e\u0930\u0924\u0940 \u092a\u092c\u0932\u093f\u0915 \u0938\u094d\u0915\u0942\u0932", "public_transport": "platform", "shelter": "yes", "tactile_paving": "no"}}, {"type": "node", "id": 6498242790, "lat": 28.5996819, "lon": 77.3477567, "tags": {"bench": "yes", "bus": "yes", "highway": "bus_stop", "public_transport": "platform", "shelter": "yes"}}, {"type": "node", "id": 6498242791, "lat": 28.6240913, "lon": 77.3741114, "tags": {"bench": "no", "bus": "yes", "highway": "bus_stop", "name": "Rasoolpur Village", "public_transport": "platform", "shelter": "no"}}, {"type": "node", "id": 6498242796, "lat": 28.609134, "lon": 77.35047, "tags": {"bench": "no", "bus": "yes", "highway": "bus_stop", "public_transport": "platform", "shelter": "no"}}, {"type": "node", "id": 6498242799, "lat": 28.5957457, "lon": 77.3430689, "tags": {"bench": "no", "bus": "yes", "highway": "bus_stop", "public_transport": "platform", "shelter": "no"}}, {"type": "node", "id": 6498242800, "lat": 28.6180002, "lon": 77.3732711, "tags": {"bench": "no", "bus": "yes", "highway": "bus_stop", "public_transport": "platform", "shelter": "no"}}, {"type": "node", "id": 6498242802, "lat": 28.6299103, "lon": 77.3742561, "tags": {"bench": "no", "bus": "yes", "highway": "bus_stop", "public_transport": "platform", "shelter": "no"}}, {"type": "node", "id": 6498242809, "lat": 28.6041657, "lon": 77.3506395, "tags": {"bench": "no", "bus": "yes", "highway": "bus_stop", "name": "Sector 55 Park Plaza", "public_transport": "platform", "shelter": "no"}}, {"type": "node", "id": 6498242810, "lat": 28.6051619, "lon": 77.3505388, "tags": {"bench": "no", "bus": "yes", "highway": "bus_stop", "public_transport": "platform", "shelter": "no"}}, {"type": "node", "id": 6498242811, "lat": 28.5910322, "lon": 77.3371011, "tags": {"bench": "no", "bus": "yes", "highway": "bus_stop", "name": "Noida Stadium", "note": "Name may be incorrect.", "public_transport": "platform", "shelter": "no"}}, {"type": "node", "id": 6498242812, "lat": 28.5993582, "lon": 77.3451358, "tags": {"bus": "yes", "disused:bench": "yes", "disused:shelter": "yes", "highway": "bus_stop", "name": "12/22", "public_transport": "platform"}}, {"type": "node", "id": 6498242815, "lat": 28.5876875, "lon": 77.3324239, "tags": {"bench": "no", "bus": "yes", "highway": "bus_stop", "name": "Noida Sector 10", "note": "Name may be incorrect.", "public_transport": "platform", "shelter": "no"}}, {"type": "node", "id": 7041732175, "lat": 28.4642423, "lon": 77.5097237, "tags": {"bus": "yes", "highway": "bus_stop", "name": "Pari Chowk", "public_transport": "platform"}}, {"type": "node", "id": 7042356201, "lat": 28.5640335, "lon": 77.3333779, "tags": {"bus": "yes", "highway": "bus_stop", "name": "Botanical Garden Metro Station", "public_transport": "platform"}}, {"type": "node", "id": 7042356208, "lat": 28.561428, "lon": 77.337023, "tags": {"bench": "yes", "bus": "yes", "highway": "bus_stop", "public_transport": "platform", "shelter": "yes", "tactile_paving": "yes"}}, {"type": "node", "id": 7042356209, "lat": 28.5609423, "lon": 77.3360564, "tags": {"bus": "yes", "highway": "bus_stop", "name": "Noida Sector 37", "public_transport": "platform", "tactile_paving": "no"}}, {"type": "node", "id": 7151002057, "lat": 28.6191159, "lon": 77.3735833, "tags": {"bench": "yes", "highway": "bus_stop", "public_transport": "platform", "shelter": "yes"}}, {"type": "node", "id": 7151227232, "lat": 28.6221424, "lon": 77.3742602}, {"type": "node", "id": 7151227235, "lat": 28.6225753, "lon": 77.3743146}, {"type": "node", "id": 7151275049, "lat": 28.6067394, "lon": 77.3728456, "tags": {"bus": "yes", "highway": "bus_stop", "name": "Mamura Village", "note": "Name may be incorrect.", "public_transport": "platform"}}, {"type": "node", "id": 7151275051, "lat": 28.6098181, "lon": 77.3730562, "tags": {"bus": "yes", "highway": "bus_stop", "name": "Mamura Chowk", "note": "Name may be incorrect.", "public_transport": "platform"}}, {"type": "node", "id": 7151276251, "lat": 28.594626, "lon": 77.3606561, "tags": {"bus": "yes", "highway": "bus_stop", "name": "Kanchenjunga", "public_transport": "platform"}}, {"type": "node", "id": 7151357033, "lat": 28.593301, "lon": 77.3406242, "tags": {"bus": "yes", "highway": "bus_stop", "public_transport": "platform"}}, {"type": "node", "id": 7151357034, "lat": 28.598068, "lon": 77.3444931, "tags": {"bus": "yes", "highway": "bus_stop", "name": "12/22", "public_transport": "platform"}}, {"type": "node", "id": 7151357041, "lat": 28.5956101, "lon": 77.3432662, "tags": {"bus": "yes", "highway": "bus_stop", "public_transport": "platform"}}, {"type": "node", "id": 7151357043, "lat": 28.5991459, "lon": 77.3455392, "tags": {"bus": "yes", "highway": "bus_stop", "name": "12/22", "public_transport": "platform"}}, {"type": "node", "id": 7151357046, "lat": 28.5881307, "lon": 77.3335567, "tags": {"bus": "yes", "highway": "bus_stop", "name": "Noida Sector 21", "note": "Name may be incorrect.", "public_transport": "platform"}}, {"type": "node", "id": 7189787490, "lat": 28.5908188, "lon": 77.337293, "tags": {"bench": "no", "bus": "yes", "highway": "bus_stop", "name": "Noida Stadium", "note": "Name may be incorrect.", "public_transport": "platform", "shelter": "no"}}, {"type": "node", "id": 7232709144, "lat": 28.5640691, "lon": 77.3863738, "tags": {"bus": "yes", "highway": "bus_stop", "public_transport": "platform"}}, {"type": "node", "id": 7253664058, "lat": 28.5643704, "lon": 77.3353708, "tags": {"bus": "yes", "highway": "bus_stop", "public_transport": "platform"}}, {"type": "node", "id": 7253664060, "lat": 28.5621395, "lon": 77.3388308, "tags": {"bus": "yes", "highway": "bus_stop", "public_transport": "platform"}}, {"type": "node", "id": 7253664061, "lat": 28.5603178, "lon": 77.3413628, "tags": {"bus": "yes", "highway": "bus_stop", "public_transport": "platform"}}, {"type": "node", "id": 7253664064, "lat": 28.5605999, "lon": 77.3454814}, {"type": "node", "id": 7253664065, "lat": 28.560594, "lon": 77.3453047}, {"type": "node", "id": 7253664066, "lat": 28.5606215, "lon": 77.3456273}, {"type": "node", "id": 7253664067, "lat": 28.5606219, "lon": 77.3452955}, {"type": "node", "id": 7253664068, "lat": 28.5606512, "lon": 77.3456221}, {"type": "node", "id": 7253664069, "lat": 28.5720745, "lon": 77.3529996, "tags": {"bench": "yes", "bus": "yes", "highway": "bus_stop", "name": "Noida Sector 39", "note": "Name may be incorrect.", "public_transport": "platform", "shelter": "yes"}}, {"type": "node", "id": 7253664070, "lat": 28.5751202, "lon": 77.3569599, "tags": {"bus": "yes", "highway": "bus_stop", "name": "Noida City Centre", "public_transport": "platform"}}, {"type": "node", "id": 7253664071, "lat": 28.5762897, "lon": 77.3580891, "tags": {"bus": "yes", "highway": "bus_stop", "public_transport": "platform"}}, {"type": "node", "id": 7253664072, "lat": 28.579519, "lon": 77.3629063, "tags": {"bus": "yes", "highway": "bus_stop", "name": "Noida Sector 34/51", "public_transport": "platform"}}, {"type": "node", "id": 7253664073, "lat": 28.5788783, "lon": 77.3620132, "tags": {"bus": "yes", "highway": "bus_stop", "name": "Noida Sector 34/51", "public_transport": "platform"}}, {"type": "node", "id": 7253664074, "lat": 28.5796844, "lon": 77.3624623, "tags": {"bench": "yes", "bus": "yes", "highway": "bus_stop", "name": "Noida Sector 34/51", "public_transport": "platform", "shelter": "yes"}}, {"type": "node", "id": 9029968736, "lat": 28.6183126, "lon": 77.8094699, "tags": {"bus": "yes", "highway": "bus_stop", "public_transport": "platform"}}, {"type": "way", "id": 765694270, "nodes": [7151227235, 7151227232], "tags": {"bus": "yes", "highway": "bus_stop", "name": "Noida Sector 62", "public_transport": "platform"}}, {"type": "way", "id": 777346020, "nodes": [7253664067, 7253664065, 7253664064, 7253664066, 7253664068, 7253664067], "tags": {"bus": "yes", "highway": "bus_stop", "public_transport": "platform"}}]}