{"version": 0.6, "generator": "Overpass API 0.7.60 f4c14d41", "osm3s": {"timestamp_osm_base": "2023-05-17T16:07:39Z", "copyright": "The data included in this document is from www.openstreetmap.org. The data is made available under ODbL."}, "elements": [{"type": "node", "id": 315733720, "lat": 26.8947988, "lon": 75.8612266, "tags": {"bus": "yes", "bus_routes": "27", "highway": "bus_stop", "name": "Ghat ki guni", "public_transport": "platform"}}, {"type": "node", "id": 316420529, "lat": 26.944099, "lon": 75.8395104, "tags": {"bus": "yes", "highway": "bus_stop", "name": "Ramgarh Mod", "public_transport": "platform"}}, {"type": "node", "id": 2106291593, "lat": 26.9040357, "lon": 75.8444409, "tags": {"bus": "yes", "bus_routes": "27, 10B", "highway": "bus_stop", "name": "Transport Nagar", "public_transport": "platform"}}, {"type": "node", "id": 2106392969, "lat": 26.9466897, "lon": 75.8402911, "tags": {"bus": "yes", "highway": "bus_stop", "name": "Karbala", "public_transport": "platform"}}, {"type": "node", "id": 4225291290, "lat": 26.8178791, "lon": 75.8505373, "tags": {"highway": "bus_stop", "name": "8 Number Bus Stand"}}, {"type": "node", "id": 4229660308, "lat": 27.0440169, "lon": 75.8987617, "tags": {"highway": "bus_stop", "name": "Kukas, Jaipur, Rajasthan"}}, {"type": "node", "id": 6978725507, "lat": 26.9029926, "lon": 75.837072, "tags": {"bus": "yes", "bus_routes": "7, Mini 38", "highway": "bus_stop", "name": "Mental Hospital", "public_transport": "platform"}}, {"type": "node", "id": 6978725510, "lat": 26.9045227, "lon": 75.8443328, "tags": {"bus": "yes", "bus_routes": "14, 32, AC 5", "highway": "bus_stop", "name": "Transport Nagar", "public_transport": "platform"}}, {"type": "node", "id": 6978725512, "lat": 26.9014592, "lon": 75.8437164, "tags": {"bus": "yes", "highway": "bus_stop", "name": "Ghat ki Guni Circle", "public_transport": "platform"}}, {"type": "node", "id": 6978725515, "lat": 26.8927562, "lon": 75.8678625, "tags": {"bus": "yes", "bus_routes": "14, 32", "highway": "bus_stop", "name": "Dayal Hospital", "public_transport": "platform"}}, {"type": "node", "id": 6978725516, "lat": 26.8919996, "lon": 75.866979, "tags": {"bus": "yes", "bus_routes": "27", "highway": "bus_stop", "name": "Dayal Hospital", "public_transport": "platform"}}, {"type": "node", "id": 6978725517, "lat": 26.8744243, "lon": 75.9492164, "tags": {"bus": "yes", "bus_routes": "14, 32", "highway": "bus_stop", "name": "Kanota", "public_transport": "platform"}}, {"type": "node", "id": 6978725518, "lat": 26.8742569, "lon": 75.9488296, "tags": {"bus": "yes", "bus_routes": "14, 32", "highway": "bus_stop", "name": "Kanota", "public_transport": "platform"}}, {"type": "node", "id": 6978725520, "lat": 26.9097761, "lon": 75.8374766, "tags": {"bus": "yes", "bus_routes": "3, 14, 27, 32, AC 5, Mini 38", "highway": "bus_stop", "name": "Amratpuri", "public_transport": "platform"}}, {"type": "node", "id": 6978725522, "lat": 26.9134878, "lon": 75.8330205, "tags": {"bus": "yes", "bus_routes": "3, 14, 27, 32, AC 5, Mini 38", "highway": "bus_stop", "name": "Ghat Darwaza", "public_transport": "platform"}}, {"type": "node", "id": 7048879932, "lat": 26.835955, "lon": 75.8348845, "tags": {"bus": "yes", "highway": "bus_stop", "name": "Jagatpura jaipur", "public_transport": "platform", "shelter": "yes"}}, {"type": "node", "id": 7069865252, "lat": 26.9028688, "lon": 75.8372395, "tags": {"bus": "yes", "highway": "bus_stop", "name": "Mental Hospital", "public_transport": "platform"}}, {"type": "node", "id": 8039986527, "lat": 26.8071459, "lon": 75.8358345, "tags": {"bus": "yes", "highway": "bus_stop", "name": "NRI Circle", "public_transport": "platform"}}, {"type": "node", "id": 8039986528, "lat": 26.8069931, "lon": 75.8357989, "tags": {"bus": "yes", "highway": "bus_stop", "public_transport": "platform"}}, {"type": "node", "id": 8039986529, "lat": 26.8009976, "lon": 75.8397962, "tags": {"bus": "yes", "highway": "bus_stop", "name": "Dwarka Puri", "public_transport": "platform"}}, {"type": "node", "id": 8039986530, "lat": 26.8010011, "lon": 75.8396802, "tags": {"bus": "yes", "highway": "bus_stop", "name": "Dwarkapuri", "public_transport": "platform"}}, {"type": "node", "id": 8042126719, "lat": 26.9213335, "lon": 75.8344956, "tags": {"bus": "yes", "highway": "bus_stop", "name": "Ramganj", "public_transport": "platform"}}, {"type": "node", "id": 8042126720, "lat": 26.9213064, "lon": 75.8342678, "tags": {"bus": "yes", "highway": "bus_stop", "name": "Ramganj", "public_transport": "platform"}}, {"type": "node", "id": 8042126721, "lat": 26.9192175, "lon": 75.8444703, "tags": {"bus": "yes", "highway": "bus_stop", "name": "Surajpole Gate", "public_transport": "platform"}}, {"type": "node", "id": 8042166840, "lat": 26.9183395, "lon": 75.8487008, "tags": {"bus": "yes", "highway": "bus_stop", "name": "Galta Gate", "public_transport": "platform"}}, {"type": "node", "id": 8043797916, "lat": 26.9346259, "lon": 75.833265, "tags": {"bus": "yes", "highway": "bus_stop", "name": "Joravar Singh Gate", "public_transport": "platform"}}, {"type": "node", "id": 8043797918, "lat": 26.9394182, "lon": 75.8370487, "tags": {"bus": "yes", "highway": "bus_stop", "name": "Govind Nagar", "public_transport": "platform"}}, {"type": "node", "id": 8043797919, "lat": 26.9401121, "lon": 75.8374986, "tags": {"bus": "yes", "highway": "bus_stop", "name": "Govind Nagar", "public_transport": "platform"}}, {"type": "node", "id": 8043797921, "lat": 26.9440494, "lon": 75.8396035, "tags": {"bus": "yes", "highway": "bus_stop", "name": "Ramgarh Mod", "public_transport": "platform"}}, {"type": "node", "id": 8043890744, "lat": 26.9536509, "lon": 75.8421694, "tags": {"bus": "yes", "highway": "bus_stop", "name": "Jal Mahal", "public_transport": "platform"}}, {"type": "node", "id": 8043890745, "lat": 26.9536728, "lon": 75.842333, "tags": {"bus": "yes", "highway": "bus_stop", "name": "Jal Mahal", "public_transport": "platform"}}, {"type": "node", "id": 8043890746, "lat": 26.9561107, "lon": 75.8430089, "tags": {"bus": "yes", "highway": "bus_stop", "name": "Shahpura Bagh", "public_transport": "platform"}}, {"type": "node", "id": 8043890747, "lat": 26.9564529, "lon": 75.8433062, "tags": {"bus": "yes", "highway": "bus_stop", "name": "Shahpura Bagh", "public_transport": "platform"}}, {"type": "node", "id": 8043890758, "lat": 26.9604462, "lon": 75.8448872, "tags": {"bus": "yes", "highway": "bus_stop", "name": "Air Force School", "public_transport": "platform"}}, {"type": "node", "id": 8043890759, "lat": 26.961207, "lon": 75.8452833, "tags": {"bus": "yes", "highway": "bus_stop", "name": "Air Force School", "public_transport": "platform"}}, {"type": "node", "id": 8043906190, "lat": 26.9756383, "lon": 75.8511864, "tags": {"bus": "yes", "highway": "bus_stop", "name": "Kholeshwar Mahadev Temple", "public_transport": "platform"}}, {"type": "node", "id": 8043906202, "lat": 26.9854753, "lon": 75.853973, "tags": {"bus": "yes", "highway": "bus_stop", "name": "Amer Fort", "public_transport": "platform"}}, {"type": "node", "id": 8043906204, "lat": 26.9882503, "lon": 75.8552991, "tags": {"bus": "yes", "highway": "bus_stop", "name": "Gandhi Chowk", "public_transport": "platform"}}, {"type": "node", "id": 8043906205, "lat": 26.9885137, "lon": 75.8594847, "tags": {"bus": "yes", "highway": "bus_stop", "name": "Amer", "public_transport": "platform"}}, {"type": "node", "id": 8043906215, "lat": 26.9906158, "lon": 75.8653511, "tags": {"bus": "yes", "highway": "bus_stop", "name": "Amer Stadium", "public_transport": "platform"}}, {"type": "node", "id": 8043906216, "lat": 26.9919088, "lon": 75.8722243, "tags": {"bus": "yes", "highway": "bus_stop", "name": "Narad Ka Bagh", "public_transport": "platform"}}, {"type": "node", "id": 8043906219, "lat": 26.9955477, "lon": 75.8760978, "tags": {"bus": "yes", "highway": "bus_stop", "name": "Kunda", "public_transport": "platform"}}, {"type": "node", "id": 8043906220, "lat": 26.9960159, "lon": 75.876394, "tags": {"bus": "yes", "highway": "bus_stop", "public_transport": "platform"}}, {"type": "node", "id": 8125106446, "lat": 26.9059523, "lon": 75.8403095, "tags": {"bus": "yes", "highway": "bus_stop", "name": "Sethi Colony", "public_transport": "platform"}}, {"type": "node", "id": 8125106447, "lat": 26.9061812, "lon": 75.840259, "tags": {"bus": "yes", "highway": "bus_stop", "name": "Sethi Colony", "public_transport": "platform"}}, {"type": "node", "id": 8137399288, "lat": 26.9072657, "lon": 75.8404101, "tags": {"bus": "yes", "highway": "bus_stop", "name": "New Transport Nagar", "public_transport": "platform"}}, {"type": "node", "id": 8137399289, "lat": 26.9011462, "lon": 75.8434368, "tags": {"bus": "yes", "highway": "bus_stop", "name": "Ghat ki Guni Circle", "public_transport": "platform"}}, {"type": "node", "id": 8137399293, "lat": 26.8928184, "lon": 75.8672142, "tags": {"bus": "yes", "highway": "bus_stop", "name": "Dayal Hospital", "public_transport": "platform"}}, {"type": "node", "id": 8137399297, "lat": 26.8571487, "lon": 76.053676, "tags": {"bus": "yes", "highway": "bus_stop", "name": "Bassi", "public_transport": "platform"}}, {"type": "node", "id": 8175950480, "lat": 26.9467263, "lon": 75.8400912, "tags": {"bus": "yes", "highway": "bus_stop", "name": "Karbala", "public_transport": "platform"}}]}