{"version": 0.6, "generator": "Overpass API 0.7.60.6 e2dc3e5b", "osm3s": {"timestamp_osm_base": "2023-06-12T11:19:39Z", "copyright": "The data included in this document is from www.openstreetmap.org. The data is made available under ODbL."}, "elements": [{"type": "node", "id": 1491429119, "lat": 30.3289973, "lon": 76.3864536, "tags": {"highway": "bus_stop", "local_ref": "Bus Stand"}}, {"type": "node", "id": 3431049783, "lat": 30.3690385, "lon": 76.4722026, "tags": {"highway": "bus_stop", "name": "Bahadurgarh"}}, {"type": "node", "id": 4391047891, "lat": 30.4660507, "lon": 76.7275192, "tags": {"highway": "bus_stop"}}, {"type": "node", "id": 4579391790, "lat": 30.3757083, "lon": 76.7730799, "tags": {"highway": "bus_stop", "name:en": "Aggarsain chowk"}}, {"type": "node", "id": 9936444509, "lat": 30.1778467, "lon": 76.6976757, "tags": {"bench": "yes", "bus": "yes", "highway": "bus_stop", "public_transport": "platform", "shelter": "yes"}}, {"type": "node", "id": 9936444510, "lat": 30.1775738, "lon": 76.6980587, "tags": {"bench": "yes", "bus": "yes", "highway": "bus_stop", "public_transport": "platform", "shelter": "yes"}}, {"type": "node", "id": 10289755664, "lat": 30.3042374, "lon": 76.7074417, "tags": {"bus": "yes", "highway": "bus_stop", "name": "Bus Stand, Bhari", "network": "Ambala-Naneola", "operator": "Haryana Roadways", "public_transport": "platform"}}, {"type": "node", "id": 10293055222, "lat": 30.3041815, "lon": 76.7074937, "tags": {"bus": "yes", "highway": "bus_stop", "name": "Bus Stand, Bhari", "network": "Ambala-Naneola", "operator": "Haryana Roadways", "public_transport": "platform"}}]}