{"version": 0.6, "generator": "Overpass API 0.7.60 f4c14d41", "osm3s": {"timestamp_osm_base": "2023-05-17T15:23:08Z", "copyright": "The data included in this document is from www.openstreetmap.org. The data is made available under ODbL."}, "elements": [{"type": "node", "id": 316742974, "lat": 26.9123361, "lon": 75.8161415, "tags": {"bus": "yes", "highway": "bus_stop", "name": "Maharani College", "public_transport": "platform"}}, {"type": "node", "id": 316943439, "lat": 26.9244477, "lon": 75.8186598, "tags": {"bus": "yes", "highway": "bus_stop", "name": "Choti Chaupar", "public_transport": "platform"}}, {"type": "node", "id": 566815183, "lat": 26.92336, "lon": 75.82549, "tags": {"amenity": "post_office", "name": "Post Bazar"}}, {"type": "node", "id": 566815520, "lat": 26.9161855, "lon": 75.8109776, "tags": {"amenity": "restaurant", "diet:vegetarian": "only", "name": "Natraj vegetarian Restaurant"}}, {"type": "node", "id": 1466911306, "lat": 26.9152206, "lon": 75.8099046, "tags": {"amenity": "fast_food"}}, {"type": "node", "id": 1466912420, "lat": 26.9161688, "lon": 75.8108964, "tags": {"amenity": "library"}}, {"type": "node", "id": 1466912425, "lat": 26.9162654, "lon": 75.8114782, "tags": {"amenity": "library"}}, {"type": "node", "id": 1496872518, "lat": 26.9154381, "lon": 75.8089288, "tags": {"amenity": "marketplace"}}, {"type": "node", "id": 1496872520, "lat": 26.915706, "lon": 75.8206447, "tags": {"amenity": "parking"}}, {"type": "node", "id": 1812532429, "lat": 26.9229719, "lon": 75.8275966}, {"type": "node", "id": 1812532437, "lat": 26.9225242, "lon": 75.8259599}, {"type": "node", "id": 1812532442, "lat": 26.9230127, "lon": 75.827416}, {"type": "node", "id": 1812532454, "lat": 26.9233891, "lon": 75.827523}, {"type": "node", "id": 1812532456, "lat": 26.9232751, "lon": 75.8276828}, {"type": "node", "id": 1812532460, "lat": 26.9233426, "lon": 75.8275098}, {"type": "node", "id": 1812532485, "lat": 26.9233483, "lon": 75.8277036}, {"type": "node", "id": 1812532491, "lat": 26.9224194, "lon": 75.8260513}, {"type": "node", "id": 1812532498, "lat": 26.9225458, "lon": 75.8265157}, {"type": "node", "id": 1812532499, "lat": 26.9225561, "lon": 75.8260057}, {"type": "node", "id": 1812532502, "lat": 26.9230683, "lon": 75.82751}, {"type": "node", "id": 1812532504, "lat": 26.9232994, "lon": 75.8275757}, {"type": "node", "id": 1812532533, "lat": 26.9225202, "lon": 75.825997}, {"type": "node", "id": 1812532546, "lat": 26.9230441, "lon": 75.8276171}, {"type": "node", "id": 1812540125, "lat": 26.9153191, "lon": 75.8169299, "tags": {"bus": "yes", "highway": "bus_stop", "name": "Ajmeri Gate", "public_transport": "platform"}}, {"type": "node", "id": 2106256089, "lat": 26.9153051, "lon": 75.8242565, "tags": {"bus": "yes", "bus_routes": "3, 3B, 14, 27, 32, AC 1, AC 2, AC 5, Mini 34, Mini 38", "highway": "bus_stop", "name": "Sanganeri Gate", "public_transport": "platform"}}, {"type": "node", "id": 2583229954, "lat": 26.9168711, "lon": 75.8201955, "tags": {"amenity": "restaurant", "name": "Ganesh Restaurant"}}, {"type": "node", "id": 2658139576, "lat": 26.9158472, "lon": 75.8222237, "tags": {"amenity": "atm"}}, {"type": "node", "id": 2684968689, "lat": 26.9195889, "lon": 75.8260441, "tags": {"alt_name": "LMB", "amenity": "restaurant", "cuisine": "indian", "name": "Laxmi Mishthan Bhandar"}}, {"type": "node", "id": 2777043242, "lat": 26.9244425, "lon": 75.8208167, "tags": {"amenity": "place_of_worship", "name": "Iswari Minar Swarga Sali", "name:en": "Iswari Minar Swarga Sali (Isarlat)", "religion": "muslim", "tourism": "viewpoint"}}, {"type": "node", "id": 2777043244, "lat": 26.9220808, "lon": 75.8263874}, {"type": "node", "id": 2777043245, "lat": 26.9220963, "lon": 75.8263157}, {"type": "node", "id": 2777043246, "lat": 26.9221562, "lon": 75.8263321}, {"type": "node", "id": 2777043247, "lat": 26.9221826, "lon": 75.8262105}, {"type": "node", "id": 2777043248, "lat": 26.9223736, "lon": 75.8262626}, {"type": "node", "id": 2777043249, "lat": 26.9218173, "lon": 75.8260657}, {"type": "node", "id": 2777043250, "lat": 26.9217668, "lon": 75.8262924}, {"type": "node", "id": 2777043251, "lat": 26.9215865, "lon": 75.8262419}, {"type": "node", "id": 2777043252, "lat": 26.9216371, "lon": 75.8260152}, {"type": "node", "id": 2777043254, "lat": 26.9160974, "lon": 75.8188024}, {"type": "node", "id": 2777043255, "lat": 26.9149877, "lon": 75.8238664}, {"type": "node", "id": 2777043256, "lat": 26.9110461, "lon": 75.8227292}, {"type": "node", "id": 2777043257, "lat": 26.9112434, "lon": 75.8210458}, {"type": "node", "id": 2777043258, "lat": 26.9105471, "lon": 75.8209529}, {"type": "node", "id": 2777043259, "lat": 26.9098399, "lon": 75.8205061}, {"type": "node", "id": 2777043260, "lat": 26.9079675, "lon": 75.8199477}, {"type": "node", "id": 2777043261, "lat": 26.908585, "lon": 75.8155136}, {"type": "node", "id": 2777043262, "lat": 26.9152279, "lon": 75.8169767}, {"type": "node", "id": 2777043263, "lat": 26.9155765, "lon": 75.8173341}, {"type": "node", "id": 2777043264, "lat": 26.9160844, "lon": 75.8181941}, {"type": "node", "id": 3083894933, "lat": 26.9169424, "lon": 75.8169212, "tags": {"amenity": "fuel", "brand": "HP"}}, {"type": "node", "id": 3258234520, "lat": 26.9163389, "lon": 75.8115606, "tags": {"amenity": "restaurant", "name": "Niros", "name:hi": "Niros - nice food. 250-500pp"}}, {"type": "node", "id": 3266671377, "lat": 26.9164568, "lon": 75.8186365, "tags": {"bus": "yes", "bus_routes": "3, 3B, 14", "highway": "bus_stop", "name": "Ajmeri Gate", "public_transport": "platform"}}, {"type": "node", "id": 3781906922, "lat": 26.9153887, "lon": 75.8097432}, {"type": "node", "id": 3781906923, "lat": 26.9156878, "lon": 75.8098908}, {"type": "node", "id": 3781906924, "lat": 26.9154832, "lon": 75.8104123}, {"type": "node", "id": 3781906925, "lat": 26.9151841, "lon": 75.8102647}, {"type": "node", "id": 3781906926, "lat": 26.9159839, "lon": 75.8098987, "tags": {"amenity": "fast_food", "brand": "McDonald's", "brand:pa": "\u0a2e\u0a48\u0a15\u0a21\u0a4b\u0a28\u0a32\u0a21\u2019\u0a1c\u0a3c", "brand:ur": "\u0645\u06a9\u0688\u0648\u0646\u0644\u0688\u0632", "brand:wikidata": "Q38076", "brand:wikipedia": "en:McDonald's", "brand:wikipedia:pa": "\u0a2e\u0a48\u0a15\u0a21\u0a4b\u0a28\u0a32\u0a21\u2019\u0a1c\u0a3c", "brand:wikipedia:ur": "\u0645\u06a9\u0688\u0648\u0646\u0644\u0688\u0632", "name": "McDonald's", "name:pa": "\u0a2e\u0a48\u0a15\u0a21\u0a4b\u0a28\u0a32\u0a21\u2019\u0a1c\u0a3c", "name:ur": "\u0645\u06a9\u0688\u0648\u0646\u0644\u0688\u0632"}}, {"type": "node", "id": 3781914344, "lat": 26.9131912, "lon": 75.8085491}, {"type": "node", "id": 3781914345, "lat": 26.9130482, "lon": 75.8089266}, {"type": "node", "id": 3785882463, "lat": 26.9170187, "lon": 75.8162091}, {"type": "node", "id": 3785882467, "lat": 26.9170258, "lon": 75.8161071}, {"type": "node", "id": 3785882473, "lat": 26.9171003, "lon": 75.8162163}, {"type": "node", "id": 3785882474, "lat": 26.9171075, "lon": 75.8161143}, {"type": "node", "id": 3785947549, "lat": 26.9107258, "lon": 75.8180354}, {"type": "node", "id": 3785947550, "lat": 26.9111791, "lon": 75.8159309}, {"type": "node", "id": 3785947551, "lat": 26.911967, "lon": 75.8183716}, {"type": "node", "id": 3785947552, "lat": 26.9124202, "lon": 75.816267}, {"type": "node", "id": 3790779826, "lat": 26.9122425, "lon": 75.8276538}, {"type": "node", "id": 3790779827, "lat": 26.9124153, "lon": 75.827098}, {"type": "node", "id": 3790779830, "lat": 26.9129482, "lon": 75.8282031}, {"type": "node", "id": 3790779831, "lat": 26.912971, "lon": 75.8281132}, {"type": "node", "id": 3790779833, "lat": 26.9130835, "lon": 75.8279473}, {"type": "node", "id": 3790779834, "lat": 26.9130762, "lon": 75.8282439}, {"type": "node", "id": 3790779839, "lat": 26.9131254, "lon": 75.8279272}, {"type": "node", "id": 3790779848, "lat": 26.9132761, "lon": 75.8273516}, {"type": "node", "id": 3790822298, "lat": 26.9115592, "lon": 75.8108975}, {"type": "node", "id": 3790822300, "lat": 26.9116554, "lon": 75.810665}, {"type": "node", "id": 3790822301, "lat": 26.9118398, "lon": 75.8088555}, {"type": "node", "id": 3790822304, "lat": 26.9119612, "lon": 75.8111067}, {"type": "node", "id": 3790822305, "lat": 26.9120174, "lon": 75.8112283}, {"type": "node", "id": 3790822307, "lat": 26.9120574, "lon": 75.8108742}, {"type": "node", "id": 3790822309, "lat": 26.9120657, "lon": 75.8111171}, {"type": "node", "id": 3790822313, "lat": 26.9121406, "lon": 75.8112952}, {"type": "node", "id": 3790822315, "lat": 26.9121826, "lon": 75.8111784}, {"type": "node", "id": 3790822787, "lat": 26.9127166, "lon": 75.8099575}, {"type": "node", "id": 3790822847, "lat": 26.9130317, "lon": 75.810324}, {"type": "node", "id": 3790823011, "lat": 26.913382, "lon": 75.810411}, {"type": "node", "id": 3790823362, "lat": 26.9137041, "lon": 75.8087155}, {"type": "node", "id": 3790824144, "lat": 26.9165073, "lon": 75.8091755}, {"type": "node", "id": 3790824156, "lat": 26.9165273, "lon": 75.808987}, {"type": "node", "id": 3790824185, "lat": 26.9166522, "lon": 75.8090036}, {"type": "node", "id": 3790824186, "lat": 26.9166322, "lon": 75.8091921}, {"type": "node", "id": 3806704620, "lat": 26.9161685, "lon": 75.8107981, "tags": {"amenity": "pharmacy", "healthcare": "pharmacy", "name": "Sanjay Medical Store", "shop": "chemist"}}, {"type": "node", "id": 3806705156, "lat": 26.9160946, "lon": 75.8101221, "tags": {"amenity": "bank", "atm": "yes", "brand:wikidata": "Q2018840", "name": "Allahabad Bank", "name:en": "Allahabad Bank", "website": "https://www.allahabadbank.in"}}, {"type": "node", "id": 3806705457, "lat": 26.9161083, "lon": 75.8102147, "tags": {"amenity": "bank", "atm": "yes", "name": "J&K Bank"}}, {"type": "node", "id": 3806705458, "lat": 26.9161162, "lon": 75.8103552, "tags": {"amenity": "place_of_worship", "name": "Sri Nrisinghji Mandir"}}, {"type": "node", "id": 3842344275, "lat": 26.9165159, "lon": 75.8093164, "tags": {"amenity": "atm", "brand": "Axis Bank", "brand:wikidata": "Q2003549", "name": "Axis Bank", "operator": "Axis Bank", "operator:wikidata": "Q2003549"}}, {"type": "node", "id": 3842344276, "lat": 26.9164285, "lon": 75.8094487, "tags": {"addr:housenumber": "D-183, Mahesh Marg, D-Block, Sector 4, Malviya Nagar, Jaipur, Rajasthan 302017", "amenity": "restaurant", "cuisine": "chinese", "name": "Yo China"}}, {"type": "node", "id": 3842381190, "lat": 26.916658, "lon": 75.8089072, "tags": {"addr:housenumber": "New Colony Jaipur, Rajasthan 302007", "amenity": "marketplace", "name": "Jayanti Market"}}, {"type": "node", "id": 4460472108, "lat": 26.9151335, "lon": 75.8099213, "tags": {"amenity": "fast_food", "brand": "Domino's", "brand:ks": "\u0688\u0648\u0645\u06cc\u0646\u0648\u0632", "brand:pa": "\u0a21\u0a4b\u0a2e\u0a40\u0a28\u0a4b\u0a1c\u0a3c", "brand:ur": "\u0688\u0648\u0645\u06cc\u0646\u0648\u0632", "brand:wikidata": "Q839466", "brand:wikipedia": "en:Domino's Pizza", "name": "Domino's", "name:ks": "\u0688\u0648\u0645\u06cc\u0646\u0648\u0632", "name:pa": "\u0a21\u0a4b\u0a2e\u0a40\u0a28\u0a4b\u0a1c\u0a3c", "name:ur": "\u0688\u0648\u0645\u06cc\u0646\u0648\u0632"}}, {"type": "node", "id": 4464789989, "lat": 26.9170942, "lon": 75.8200153, "tags": {"amenity": "restaurant", "name:en": "Sweet Dreams Hotel Rooftop Restaurant", "tourism": "hotel"}}, {"type": "node", "id": 4466634119, "lat": 26.9093956, "lon": 75.8186256, "tags": {"amenity": "toilets"}}, {"type": "node", "id": 4703258191, "lat": 26.9236388, "lon": 75.8267581, "tags": {"amenity": "atm", "name": "IndusInd Bank", "opening_hours": "24/7"}}, {"type": "node", "id": 4727706596, "lat": 26.9168716, "lon": 75.815879, "tags": {"bus": "yes", "highway": "bus_stop", "name": "Ajmeri Gate", "public_transport": "platform"}}, {"type": "node", "id": 4728303926, "lat": 26.9126972, "lon": 75.8209769, "tags": {"description": "Jaipur Zoo - tigers, lions, monkeys, birds, crocodiles", "leisure": "park", "name": "Jaipur Zoo"}}, {"type": "node", "id": 4743392521, "lat": 26.9157551, "lon": 75.8101207, "tags": {"amenity": "restaurant", "cuisine": "chinese;ice_cream;pizza;indian;local", "name:de": "The Door's Restaurant", "name:en": "The Door's Restaurant", "phone": "+911414024597"}}, {"type": "node", "id": 4744500823, "lat": 26.9171606, "lon": 75.8145919, "tags": {"addr:street": "Mirza Ismail Road", "amenity": "cafe", "name": "India Coffe House", "name:en": "India Coffe Housepk look ii", "opening_hours": "Mo-Su 08:00-21:00", "operator": "ynwaphoto"}}, {"type": "node", "id": 4793756923, "lat": 26.917149, "lon": 75.8145028, "tags": {"amenity": "cafe", "name:en": "indian coffe house"}}, {"type": "node", "id": 4798048721, "lat": 26.90734, "lon": 75.8146282, "tags": {"amenity": "hospital", "healthcare": "hospital", "healthcare:speciality": "emergency", "name": "SMS Trauma Center"}}, {"type": "node", "id": 4798056521, "lat": 26.9078828, "lon": 75.8126688, "tags": {"amenity": "restaurant", "int_name": "V2 Fine Dining", "name:en": "V2 Fine Dining"}}, {"type": "node", "id": 4806792993, "lat": 26.922459, "lon": 75.8259404}, {"type": "node", "id": 4806799787, "lat": 26.9225234, "lon": 75.8261684}, {"type": "node", "id": 4806799788, "lat": 26.9225973, "lon": 75.8261879}, {"type": "node", "id": 4811264442, "lat": 26.916173, "lon": 75.8106707, "tags": {"amenity": "cafe", "email": "v2cafelounge@gmail.com", "internet_access": "wlan", "name:en": "V2 Cafe Lounge"}}, {"type": "node", "id": 4895063322, "lat": 26.9198326, "lon": 75.824478, "tags": {"amenity": "restaurant", "name:en": "Khandelwal"}}, {"type": "node", "id": 5074575922, "lat": 26.9237826, "lon": 75.820574, "tags": {"amenity": "restaurant", "capacity": "50", "cuisine": "regional", "name": "Midtown Multicuisine Restaurant", "name:en": "Midtown multi cuisine restaurant"}}, {"type": "node", "id": 5197727421, "lat": 26.9163958, "lon": 75.8179421, "tags": {"amenity": "ice_cream"}}, {"type": "node", "id": 5225682023, "lat": 26.923806, "lon": 75.8273105, "tags": {"amenity": "restaurant", "cuisine": "indian;local;coffee_shop", "name:en": "The Tatto Cafe"}}, {"type": "node", "id": 5242384122, "lat": 26.922995, "lon": 75.8257091, "tags": {"amenity": "ice_cream", "name:en": "Ramchandra Kulfi Bhandar"}}, {"type": "node", "id": 5249299221, "lat": 26.923806, "lon": 75.827314, "tags": {"addr:housenumber": "30", "addr:postcode": "302002", "addr:street": "Badi Chaupar", "amenity": "cafe", "cuisine": "sandwich;regional;international;cake;pasta;pancake;pizza;curry;indian;breakfast;local;italian", "diet:vegan": "yes", "email": "Pandey.karan@outlook.com", "internet_access": "wlan", "name": "The Tattoo Cafe", "opening_hours": "Mo-Su 08:00-23:00", "phone": "+919828065533"}}, {"type": "node", "id": 5286009221, "lat": 26.9185458, "lon": 75.8121333, "tags": {"amenity": "bank", "name": "State Bank of India", "name:en": "State Bank of India", "name:hi": "State Bank of India", "name:hu": "State Bank of India"}}, {"type": "node", "id": 5287237003, "lat": 26.911393, "lon": 75.8193375, "tags": {"amenity": "toilets"}}, {"type": "node", "id": 5344535321, "lat": 26.9237491, "lon": 75.8272853, "tags": {"amenity": "cafe", "name": "Wind view cafe"}}, {"type": "node", "id": 5403055418, "lat": 26.9228478, "lon": 75.8266029, "tags": {"bus": "yes", "highway": "bus_stop", "name": "Badi Chaupar", "public_transport": "platform"}}, {"type": "node", "id": 5456498252, "lat": 26.9209145, "lon": 75.8176174, "tags": {"amenity": "toilets", "name": "Toilet, self-cleaning, Jaipur"}}, {"type": "node", "id": 5456499721, "lat": 26.9177092, "lon": 75.8163568, "tags": {"amenity": "toilets", "name": "Public Toilet, Jaipur"}}, {"type": "node", "id": 5468492121, "lat": 26.9112425, "lon": 75.8197191, "tags": {"amenity": "cafe", "name:en": "caf\u00e9 coffee day"}}, {"type": "node", "id": 5963505969, "lat": 26.9252657, "lon": 75.8193691}, {"type": "node", "id": 5963505970, "lat": 26.9248544, "lon": 75.8192511}, {"type": "node", "id": 5963505971, "lat": 26.9242134, "lon": 75.8223303}, {"type": "node", "id": 5963505972, "lat": 26.9246391, "lon": 75.8224322}, {"type": "node", "id": 6073914285, "lat": 26.9167178, "lon": 75.8162338, "tags": {"amenity": "atm", "operator": "Bank of Baroda"}}, {"type": "node", "id": 6081535434, "lat": 26.9168307, "lon": 75.8098409, "tags": {"amenity": "bank", "name": "Fin growth Co-Operative Bank"}}, {"type": "node", "id": 6083274406, "lat": 26.913099, "lon": 75.828154}, {"type": "node", "id": 6132079085, "lat": 26.9164866, "lon": 75.8111981, "tags": {"amenity": "fast_food", "name": "Lassiwara"}}, {"type": "node", "id": 6183444886, "lat": 26.9162394, "lon": 75.8112696, "tags": {"amenity": "restaurant", "cuisine": "indian", "name:en": "Surya Mahal Restaurant"}}, {"type": "node", "id": 6255765085, "lat": 26.9237416, "lon": 75.8268257, "tags": {"amenity": "cafe", "name:en": "Caf\u00e9 coffee day"}}, {"type": "node", "id": 6364179589, "lat": 26.9176937, "lon": 75.8168949, "tags": {"amenity": "bank", "name:he": "\u05d7\u05e0\u05d5\u05ea \u05e6\u05d9\u05dc\u05d5\u05dd \u05de\u05d9\u05d4"}}, {"type": "node", "id": 6630529403, "lat": 26.914579, "lon": 75.8226425}, {"type": "node", "id": 6630529404, "lat": 26.9147732, "lon": 75.8235221}, {"type": "node", "id": 6630529405, "lat": 26.915091, "lon": 75.8218612}, {"type": "node", "id": 6630529406, "lat": 26.9148607, "lon": 75.8230813}, {"type": "node", "id": 6630529407, "lat": 26.9149747, "lon": 75.8226892}, {"type": "node", "id": 6630529408, "lat": 26.9143964, "lon": 75.8234161}, {"type": "node", "id": 6630529409, "lat": 26.9145599, "lon": 75.8229837}, {"type": "node", "id": 6630529410, "lat": 26.9146459, "lon": 75.822691}, {"type": "node", "id": 6630529411, "lat": 26.914747, "lon": 75.8235302}, {"type": "node", "id": 6630529412, "lat": 26.9147619, "lon": 75.8217719}, {"type": "node", "id": 6630529413, "lat": 26.9145655, "lon": 75.8225907}, {"type": "node", "id": 6630529414, "lat": 26.9148694, "lon": 75.8231101}, {"type": "node", "id": 6630529415, "lat": 26.9151171, "lon": 75.8219322}, {"type": "node", "id": 6630529416, "lat": 26.9144848, "lon": 75.8230064}, {"type": "node", "id": 6630529417, "lat": 26.9149177, "lon": 75.8227483}, {"type": "node", "id": 6630529418, "lat": 26.9144158, "lon": 75.8234521}, {"type": "node", "id": 6630529419, "lat": 26.914726, "lon": 75.8217884}, {"type": "node", "id": 6630529420, "lat": 26.9147896, "lon": 75.8235062}, {"type": "node", "id": 6630529421, "lat": 26.9151166, "lon": 75.821888}, {"type": "node", "id": 6630529422, "lat": 26.914506, "lon": 75.8229871}, {"type": "node", "id": 6630529423, "lat": 26.914833, "lon": 75.8230581}, {"type": "node", "id": 6630529424, "lat": 26.9149516, "lon": 75.8227344}, {"type": "node", "id": 6630529425, "lat": 26.9144038, "lon": 75.8234366}, {"type": "node", "id": 6630529426, "lat": 26.9147078, "lon": 75.8218143}, {"type": "node", "id": 6632653415, "lat": 26.9242521, "lon": 75.8262339, "tags": {"amenity": "motorcycle_parking"}}, {"type": "node", "id": 6718124385, "lat": 26.9183926, "lon": 75.8213095, "tags": {"amenity": "cafe", "name": "Sahu Ki Chai"}}, {"type": "node", "id": 6780596585, "lat": 26.9214409, "lon": 75.8192213, "tags": {"amenity": "fast_food", "name": "Tasty King", "name:en": "Tasty King (cheap, quick and delicious)"}}, {"type": "node", "id": 6855397988, "lat": 26.9174489, "lon": 75.8185448, "tags": {"amenity": "restaurant", "name:en": "Mohan Restaurant"}}, {"type": "node", "id": 6976254821, "lat": 26.9117553, "lon": 75.815876, "tags": {"bus": "yes", "highway": "bus_stop", "name": "Maharani College", "public_transport": "platform"}}, {"type": "node", "id": 6976254823, "lat": 26.9161667, "lon": 75.817055, "tags": {"bus": "yes", "bus_routes": "3, 3A, 3B, 27, 32, AC 1, AC 5", "highway": "bus_stop", "name": "Ajmeri Gate", "public_transport": "platform"}}, {"type": "node", "id": 7000754687, "lat": 26.9165311, "lon": 75.8095597, "tags": {"amenity": "restaurant", "name:en": "Barbeque Nation - 1st floor"}}, {"type": "node", "id": 7024889676, "lat": 26.9068181, "lon": 75.8245965, "tags": {"addr:district": "Jaipur", "addr:full": "C-17, Deepak Marg, Adarsh Nagar", "addr:postcode": "302004", "addr:state": "Rajasthan", "amenity": "hospital", "name": "Sharma Hospital, Jaipur", "source": "OpenGovernmentData"}}, {"type": "node", "id": 7025196557, "lat": 26.9075955, "lon": 75.8238333, "tags": {"addr:district": "Jaipur", "addr:full": "C 13, Deepak Marg, Moti Dungri Road", "addr:postcode": "302004", "addr:state": "Rajasthan", "amenity": "hospital", "name": "Anil Hospital", "source": "OpenGovernmentData"}}, {"type": "node", "id": 7025306774, "lat": 26.9204054, "lon": 75.821414, "tags": {"addr:district": "Jaipur", "addr:full": "4-J-5, Jawahar Nagar, Choura Rasta", "addr:postcode": "302003", "addr:state": "Rajasthan", "amenity": "hospital", "healthcare": "hospital", "name": "Amar Jain Hospital", "source": "OpenGovernmentData"}}, {"type": "node", "id": 7027765939, "lat": 26.9086623, "lon": 75.8108716, "tags": {"addr:district": "Jaipur", "addr:full": "7, Vivekanand Marg, C-Scheme", "addr:postcode": "302001", "addr:state": "Rajasthan", "amenity": "hospital", "name": "Heart and General Hospital", "source": "OpenGovernmentData", "website": "heartandgeneralhospital.com"}}, {"type": "node", "id": 7030706660, "lat": 26.9090904, "lon": 75.8244556, "tags": {"addr:district": "Jaipur", "addr:full": "K-4A, Fatehtiba, Adarsh Nagar Road", "addr:postcode": "302004", "addr:state": "Rajasthan", "amenity": "clinic", "name": "Jain Eye Clinic and Hospital", "source": "OpenGovernmentData", "website": "mrj-jaineye.com"}}, {"type": "node", "id": 7039514016, "lat": 26.9136323, "lon": 75.8127075, "tags": {"addr:district": "Jaipur", "addr:full": "J-2/37, Mahaveer Marg", "addr:postcode": "302004", "addr:state": "Rajasthan", "amenity": "hospital", "name": "Nova Specialty Surgery", "source": "OpenGovernmentData"}}, {"type": "node", "id": 7040488133, "lat": 26.9143851, "lon": 75.8241183, "tags": {"addr:district": "Jaipur", "addr:full": "Sanganeri Gate", "addr:postcode": "302003", "addr:state": "Rajasthan", "amenity": "hospital", "name": "Mahila Chikitsalya", "source": "OpenGovernmentData"}}, {"type": "node", "id": 7046309328, "lat": 26.9076424, "lon": 75.8145838, "tags": {"amenity": "parking", "capacity": "50", "fee": "yes", "layer": "-1", "parking": "underground"}}, {"type": "node", "id": 7068572485, "lat": 26.9101095, "lon": 75.8205614, "tags": {"amenity": "fast_food", "cuisine": "indian", "name:en": "Masala Chowk"}}, {"type": "node", "id": 7159785285, "lat": 26.921071, "lon": 75.822143, "tags": {"amenity": "restaurant", "name": "Samrat street food"}}, {"type": "node", "id": 7233648285, "lat": 26.9104804, "lon": 75.8200292, "tags": {"amenity": "fast_food", "cuisine": "indian", "name:en": "Masala Chowk"}}, {"type": "node", "id": 7306107985, "lat": 26.9165819, "lon": 75.8096329, "tags": {"amenity": "fast_food", "cuisine": "burger", "diet:vegetarian": "yes", "name": "burger singh", "name:en": "Burger Singh", "opening_hours": "Mo-Su 11:00-22:00"}}, {"type": "node", "id": 7329285552, "lat": 26.9240321, "lon": 75.8203089, "tags": {"amenity": "place_of_worship", "religion": "hindu"}}, {"type": "node", "id": 7698578010, "lat": 26.9182145, "lon": 75.8138444, "tags": {"addr:district": "Jaipur", "addr:full": "Indira Bazar Road, Jayanti Market", "addr:postcode": "302001", "addr:state": "Rajasthan", "amenity": "clinic", "name": "Shri Jain Divakar Homeopathic Clinic", "source": "Local Knowledge"}}, {"type": "node", "id": 7698578014, "lat": 26.914966, "lon": 75.809544, "tags": {"addr:district": "Jaipur", "addr:full": "Vaishali Nagar", "addr:housenumber": "plot no c, JTN Anukampa Plaza, Ground Floor & First Floor, 20-A, Bhagwan Das Rd, Jaipur, Rajasthan 302001", "addr:postcode": "302007", "addr:state": "Rajasthan", "amenity": "hospital", "name": "ASG Eye Hospital", "source": "Local Knowledge"}}, {"type": "node", "id": 7698578015, "lat": 26.9134146, "lon": 75.8286492, "tags": {"addr:district": "Jaipur", "addr:full": "Central Jail, Adarsh Nagar, Jaipur", "addr:postcode": "302004", "addr:state": "Rajasthan", "amenity": "hospital", "name": "Sagar Hospital", "source": "Local Knowledge"}}, {"type": "node", "id": 7698578016, "lat": 26.9222666, "lon": 75.8130558, "tags": {"addr:district": "Jaipur", "addr:full": "Chandpole Bazar, Chandpole", "addr:postcode": "302001", "addr:state": "Rajasthan", "amenity": "clinic", "name": "Shree Homoeo Clinic", "source": "Local Knowledge"}}, {"type": "node", "id": 7698578017, "lat": 26.9187912, "lon": 75.8166265, "tags": {"addr:district": "Jaipur", "addr:postcode": "302001", "addr:state": "Rajasthan", "amenity": "clinic", "name": "Ekta Clinic", "source": "Local Knowledge"}}, {"type": "node", "id": 7698578018, "lat": 26.919735, "lon": 75.8218692, "tags": {"addr:district": "Jaipur", "addr:full": "Bapu Bazar", "addr:postcode": "302003", "addr:state": "Rajasthan", "amenity": "dentist", "name": "Khattar Dental Clinic", "source": "Local Knowledge"}}, {"type": "node", "id": 7698578024, "lat": 26.9151062, "lon": 75.826897, "tags": {"addr:district": "Jaipur", "addr:full": "Adarsh Nagar", "addr:postcode": "302003", "addr:state": "Rajasthan", "amenity": "hospital", "name": "Akhila Hospital", "source": "Local Knowledge"}}, {"type": "node", "id": 7698578033, "lat": 26.9208197, "lon": 75.8222971, "tags": {"addr:district": "Jaipur", "addr:full": "Vishwesharji", "addr:postcode": "302003", "addr:state": "Rajasthan", "amenity": "clinic", "name": "Shiva Homeo Clinic", "source": "Local Knowledge"}}, {"type": "node", "id": 7698578035, "lat": 26.9236203, "lon": 75.8223152, "tags": {"addr:district": "Jaipur", "addr:full": "Opp. Public Library", "addr:postcode": "302003", "addr:state": "Rajasthan", "amenity": "dentist", "name": "Vashishtha Dental Clinic", "source": "Local Knowledge"}}, {"type": "node", "id": 7698578038, "lat": 26.9082449, "lon": 75.8147014, "tags": {"addr:district": "Jaipur", "addr:full": "Panch Batti, Sangram Colony, Ashok Nagar", "addr:postcode": "302001", "addr:state": "Rajasthan", "amenity": "doctors", "name": "Dr. Anurag Dhakar", "source": "Local Knowledge"}}, {"type": "node", "id": 7698578042, "lat": 26.9167236, "lon": 75.8284925, "tags": {"addr:district": "Jaipur", "addr:full": "Johari Bazar Road, Sector 3", "addr:postcode": "302003", "addr:state": "Rajasthan", "amenity": "dentist", "name": "Nitin Dental Care Clinic", "source": "Local Knowledge"}}, {"type": "node", "id": 7698578051, "lat": 26.9181729, "lon": 75.8104544, "tags": {"addr:district": "Jaipur", "addr:full": "Jayanti Market", "addr:housenumber": "WRJM+R3M, Subhash Chowk, New, Amer Rd, Jaipur, Rajasthan 302002", "addr:postcode": "302001", "addr:state": "Rajasthan", "amenity": "clinic", "name": "Prakas Clinic", "source": "Local Knowledge"}}, {"type": "node", "id": 7698578054, "lat": 26.9228964, "lon": 75.8098726, "tags": {"addr:district": "Jaipur", "addr:full": "Chandpole", "addr:housenumber": "WRF5+5W5, Ninder Rao Ji ka Rasta, Chandpole Bazar, Chandpole, Chandpol, Jaipur, Rajasthan 302001", "addr:postcode": "302001", "addr:state": "Rajasthan", "amenity": "clinic", "name": "Faiz Clinic", "source": "Local Knowledge"}}, {"type": "node", "id": 7698578056, "lat": 26.9229133, "lon": 75.8089218, "tags": {"addr:district": "Jaipur", "addr:full": "Chandpole Bazar, Chandpole", "addr:housenumber": "WRF5+4HH, Topkhane Ka Rasta, Chandpole Bazar, Chandpole, Pink City, Jaipur, Rajasthan 302001", "addr:postcode": "302001", "addr:state": "Rajasthan", "amenity": "hospital", "name": "Mahesh Hospital", "source": "Local Knowledge"}}, {"type": "node", "id": 7698578061, "lat": 26.9230178, "lon": 75.8164908, "tags": {"addr:district": "Jaipur", "addr:full": "Chandpole Bazar, Chandpole", "addr:postcode": "302001", "addr:state": "Rajasthan", "amenity": "clinic", "name": "Mital Clinic", "source": "Local Knowledge"}}, {"type": "node", "id": 7698578064, "lat": 26.9166982, "lon": 75.8151552, "tags": {"addr:district": "Jaipur", "addr:full": "Jayanti Market, Ashok Nagar", "addr:postcode": "302001", "addr:state": "Rajasthan", "amenity": "clinic", "name": "Shifa Clinic", "source": "Local Knowledge"}}, {"type": "node", "id": 7698578066, "lat": 26.9186623, "lon": 75.8214178, "tags": {"addr:district": "Jaipur", "addr:full": "Telepara", "addr:postcode": "302001", "addr:state": "Rajasthan", "amenity": "hospital", "name": "Goyal Hospital", "source": "Local Knowledge"}}, {"type": "node", "id": 7698578074, "lat": 26.9225169, "lon": 75.8106177, "tags": {"addr:district": "Jaipur", "addr:full": "Chandpole, Jalupura", "addr:postcode": "302001", "addr:state": "Rajasthan", "amenity": "clinic", "name": "Rajdhani Dental & General Clinic", "source": "Local Knowledge"}}, {"type": "node", "id": 7698578076, "lat": 26.920188, "lon": 75.821831, "tags": {"addr:district": "Jaipur", "addr:full": "Tripoliya Market, Chaura Rasta", "addr:postcode": "302002", "addr:state": "Rajasthan", "amenity": "clinic", "name": "Sri Bhardwaj Clinic", "source": "Local Knowledge"}}, {"type": "node", "id": 7698578080, "lat": 26.9124912, "lon": 75.8246404, "tags": {"addr:district": "Jaipur", "addr:full": "Central Jail, Fateh Tibba, Adarsh Nagar", "addr:postcode": "302004", "addr:state": "Rajasthan", "amenity": "hospital", "name": "M.D. Hospital", "source": "Local Knowledge"}}, {"type": "node", "id": 7698578087, "lat": 26.9182345, "lon": 75.8288843, "tags": {"addr:district": "Jaipur", "addr:full": "Jaipur", "addr:postcode": "302003", "addr:state": "Rajasthan", "amenity": "clinic", "name": "Bani Clinic", "source": "Local Knowledge"}}, {"type": "node", "id": 7698578093, "lat": 26.9186579, "lon": 75.8265404, "tags": {"addr:district": "Jaipur", "addr:full": "Johari Bazar", "addr:postcode": "302003", "addr:state": "Rajasthan", "amenity": "clinic", "name": "Jain Clinic", "source": "Local Knowledge"}}, {"type": "node", "id": 7698578100, "lat": 26.9212243, "lon": 75.8137107, "tags": {"addr:district": "Jaipur", "addr:full": "Chandpole, Jalupura", "addr:postcode": "302001", "addr:state": "Rajasthan", "amenity": "clinic", "name": "Manohar Clinic", "source": "Local Knowledge"}}, {"type": "node", "id": 7698578103, "lat": 26.9227632, "lon": 75.8289986, "tags": {"addr:district": "Jaipur", "addr:full": "Ramganj Bazar", "addr:postcode": "302002", "addr:state": "Rajasthan", "amenity": "clinic", "name": "Kamal Clinic", "source": "Local Knowledge"}}, {"type": "node", "id": 7698578104, "lat": 26.9181348, "lon": 75.816914, "tags": {"addr:district": "Jaipur", "addr:full": "Modikhana", "addr:postcode": "302001", "addr:state": "Rajasthan", "amenity": "clinic", "name": "Sameer Clinic", "source": "Local Knowledge"}}, {"type": "node", "id": 7698578105, "lat": 26.9191757, "lon": 75.8238441, "tags": {"addr:district": "Jaipur", "addr:full": "Johari Bazar, Ram Lala Ji Ka Rasta, Biseswarji, Pink City", "addr:postcode": "302003", "addr:state": "Rajasthan", "amenity": "clinic", "name": "Vinayak Clinic", "source": "Local Knowledge"}}, {"type": "node", "id": 7698578106, "lat": 26.9218969, "lon": 75.8095503, "tags": {"addr:district": "Jaipur", "addr:full": "Jalupura, Jaipur", "addr:postcode": "302001", "addr:state": "Rajasthan", "amenity": "clinic", "name": "Health Clinic", "source": "Local Knowledge"}}, {"type": "node", "id": 7698578107, "lat": 26.9200507, "lon": 75.8217693, "tags": {"addr:district": "Jaipur", "addr:full": "Bapu Bazar, Biseswarji", "addr:postcode": "302003", "addr:state": "Rajasthan", "amenity": "hospital", "name": "Bhiwani Eye Hospital", "source": "Local Knowledge"}}, {"type": "node", "id": 7698578108, "lat": 26.9192023, "lon": 75.8167578, "tags": {"addr:district": "Jaipur", "addr:full": "Chandpole Bazar, Indira Bazar", "addr:postcode": "302007", "addr:state": "Rajasthan", "amenity": "hospital", "name": "Jai Hospital & Research Centre", "source": "Local Knowledge"}}, {"type": "node", "id": 8035833208, "lat": 26.9228801, "lon": 75.8274289, "tags": {"bus": "yes", "highway": "bus_stop", "name": "Badi Chopad", "public_transport": "platform"}}, {"type": "node", "id": 8039165440, "lat": 26.916051, "lon": 75.820333, "tags": {"bus": "yes", "highway": "bus_stop", "name": "New Gate Circle", "public_transport": "platform"}}, {"type": "node", "id": 8039165441, "lat": 26.9158205, "lon": 75.8208977, "tags": {"bus": "yes", "highway": "bus_stop", "name": "New Gate Circle", "public_transport": "platform"}}, {"type": "node", "id": 8039165456, "lat": 26.9227816, "lon": 75.8269836, "tags": {"bus": "yes", "highway": "bus_stop", "public_transport": "platform"}}, {"type": "node", "id": 8039170149, "lat": 26.9154032, "lon": 75.8250605, "tags": {"access": "yes", "amenity": "toilets", "fee": "yes", "name": "Shulabh Toilet", "toilets:disposal": "pitlatrine", "wheelchair": "yes"}}, {"type": "node", "id": 8039924156, "lat": 26.9237773, "lon": 75.8231508, "tags": {"bus": "yes", "highway": "bus_stop", "name": "Tripolia Gate", "public_transport": "platform"}}, {"type": "node", "id": 8039924157, "lat": 26.923847, "lon": 75.8223385, "tags": {"bus": "yes", "highway": "bus_stop", "name": "Tripolia Gate", "public_transport": "platform"}}, {"type": "node", "id": 8075691875, "lat": 26.916275, "lon": 75.8102777, "tags": {"bus": "yes", "highway": "bus_stop", "name": "Paach Batti", "public_transport": "platform"}}, {"type": "node", "id": 8137399260, "lat": 26.9071692, "lon": 75.8144973}, {"type": "node", "id": 8137399262, "lat": 26.9075066, "lon": 75.8145399}, {"type": "node", "id": 8137399263, "lat": 26.906782, "lon": 75.814453}, {"type": "node", "id": 8137399264, "lat": 26.9067425, "lon": 75.8147967}, {"type": "node", "id": 8137399265, "lat": 26.907477, "lon": 75.8148597}, {"type": "node", "id": 8137399266, "lat": 26.9074856, "lon": 75.8147673}, {"type": "node", "id": 8137399269, "lat": 26.9074789, "lon": 75.814848}, {"type": "node", "id": 8137399270, "lat": 26.9075297, "lon": 75.815063, "tags": {"amenity": "cafe", "outdoor_seating": "yes"}}, {"type": "node", "id": 8137399286, "lat": 26.9152105, "lon": 75.8235805, "tags": {"bus": "yes", "highway": "bus_stop", "name": "Sanganeri Gate", "public_transport": "platform"}}, {"type": "node", "id": 8624888435, "lat": 26.9194619, "lon": 75.8216071, "tags": {"addr:housenumber": "333", "amenity": "restaurant", "name": "Mehta Pustak Bhandar", "shop": "books"}}, {"type": "node", "id": 9394577949, "lat": 26.9113764, "lon": 75.8099148}, {"type": "node", "id": 9394577950, "lat": 26.9113522, "lon": 75.8099749}, {"type": "node", "id": 9394577951, "lat": 26.911329, "lon": 75.8099631}, {"type": "node", "id": 9394577952, "lat": 26.9113532, "lon": 75.8099031}, {"type": "node", "id": 9394577955, "lat": 26.9123418, "lon": 75.8090784}, {"type": "node", "id": 9394577956, "lat": 26.9126747, "lon": 75.808294}, {"type": "node", "id": 9394577957, "lat": 26.9122001, "lon": 75.8080265}, {"type": "node", "id": 9394577958, "lat": 26.9119057, "lon": 75.8087109}, {"type": "node", "id": 9394577959, "lat": 26.9120241, "lon": 75.8089373}, {"type": "node", "id": 9394577960, "lat": 26.9132683, "lon": 75.8084988}, {"type": "node", "id": 9394577961, "lat": 26.9129178, "lon": 75.8093943}, {"type": "node", "id": 9394577962, "lat": 26.9127375, "lon": 75.808333}, {"type": "node", "id": 9394577963, "lat": 26.9125945, "lon": 75.8087104}, {"type": "node", "id": 9394577982, "lat": 26.9125181, "lon": 75.8115076}, {"type": "node", "id": 9394577983, "lat": 26.9128942, "lon": 75.8114282}, {"type": "node", "id": 9394577984, "lat": 26.9126049, "lon": 75.8112858}, {"type": "node", "id": 9394577985, "lat": 26.9125083, "lon": 75.8115326}, {"type": "node", "id": 9394577986, "lat": 26.9127975, "lon": 75.8116751}, {"type": "node", "id": 9394577987, "lat": 26.912623, "lon": 75.8110916}, {"type": "node", "id": 9394577988, "lat": 26.9124816, "lon": 75.8114946}, {"type": "node", "id": 9394577989, "lat": 26.9122143, "lon": 75.8113767}, {"type": "node", "id": 9394577990, "lat": 26.9123556, "lon": 75.8109736}, {"type": "node", "id": 9394578011, "lat": 26.9113404, "lon": 75.8100186}, {"type": "node", "id": 9394578012, "lat": 26.9113144, "lon": 75.8100881}, {"type": "node", "id": 9394578013, "lat": 26.9112856, "lon": 75.810079}, {"type": "node", "id": 9394578014, "lat": 26.9113162, "lon": 75.8100055}, {"type": "node", "id": 10075161117, "lat": 26.9170949, "lon": 75.8192314, "tags": {"amenity": "cafe", "name:en": "Lassi Kachori"}}, {"type": "node", "id": 10574350310, "lat": 26.9223469, "lon": 75.8223161, "tags": {"amenity": "restaurant", "cuisine": "local", "name:en": "Shree Gopi Bhojnalaya (Cheap and good Vegetarian Food)"}}, {"type": "node", "id": 10904661341, "lat": 26.91579, "lon": 75.81012, "tags": {"addr:housenumber": "WR86+73P Khandaka Mansion, Mirza Ismail Rd, near Rajmandir Cinema, Panch Batti, C Scheme, Ashok Nagar, Jaipur, Rajasthan 302001", "amenity": "restaurant", "name": "the doors restaurant"}}, {"type": "node", "id": 10904668786, "lat": 26.9151658, "lon": 75.8099241, "tags": {"addr:housenumber": "Silver Square Mall, Shop No. 15,16,17, C-18, Cinema Bhagwandas Marg, near Raj Mandir, C Scheme, Jaipur, Rajasthan 302001", "amenity": "cafe"}}, {"type": "node", "id": 10904714945, "lat": 26.9134955, "lon": 75.8090591, "tags": {"amenity": "college", "name": "ground"}}, {"type": "node", "id": 10904714946, "lat": 26.9126995, "lon": 75.8114839, "tags": {"leisure": "pitch", "sport": "badminton"}}, {"type": "node", "id": 10904714947, "lat": 26.9118347, "lon": 75.8108916, "tags": {"leisure": "swimming_pool", "name": "pool club"}}, {"type": "node", "id": 10904714949, "lat": 26.9125618, "lon": 75.8119988, "tags": {"addr:housenumber": "VQWP+MGJ, Hawa Sadak, Sharma Colony, Bais Godam, Jaipur, Rajasthan 302006", "amenity": "place_of_worship", "name": "temple hindu"}}, {"type": "node", "id": 10904714950, "lat": 26.9111229, "lon": 75.8121791, "tags": {"amenity": "bar"}}, {"type": "node", "id": 10904714955, "lat": 26.9113372, "lon": 75.8118529, "tags": {"amenity": "fast_food", "name": "salon"}}, {"type": "node", "id": 10904714956, "lat": 26.9107173, "lon": 75.8124237, "tags": {"addr:housenumber": "PN D 9 ,Saket Colony Govind Marg, Adarsh Nagar Nr Pink Square Mall, Jaipur, Rajasthan 302004", "amenity": "bank", "name": "hdfc bank", "not:brand:wikidata": "Q631047"}}, {"type": "node", "id": 10904714957, "lat": 26.9127474, "lon": 75.8089685, "tags": {"addr:housenumber": "WR65+XXF, Bhagwan Das Rd, Panch Batti, C Scheme, Ashok Nagar, Jaipur, Rajasthan 302001", "amenity": "university", "name": "ad ground"}}, {"type": "node", "id": 10904714959, "lat": 26.9134489, "lon": 75.8110688, "tags": {"leisure": "park", "name": "Farm land"}}, {"type": "node", "id": 10904714960, "lat": 26.9138394, "lon": 75.8119546, "tags": {"amenity": "university", "name": "Dancing hall"}}, {"type": "node", "id": 10904714961, "lat": 26.9129585, "lon": 75.8098886, "tags": {"amenity": "university", "name": "Runner ground"}}, {"type": "node", "id": 10904758414, "lat": 26.9118517, "lon": 75.8108921, "tags": {"leisure": "swimming_pool", "name": "pool club"}}, {"type": "node", "id": 10904759863, "lat": 26.9126883, "lon": 75.8120176, "tags": {"amenity": "place_of_worship", "religion": "hindu"}}, {"type": "node", "id": 10904794879, "lat": 26.9154253, "lon": 75.8100827, "tags": {"addr:housenumber": "C-16, Bhagwan Das Rd, Panch Batti, C Scheme, Ashok Nagar, Jaipur, Rajasthan 302001", "amenity": "cinema", "name": "raj mandir cinemas"}}, {"type": "way", "id": 170101096, "nodes": [1812532504, 1812532502, 1812532546, 1812532429, 1812532442, 1812532460, 1812532454, 1812532485, 1812532456, 1812532504], "tags": {"addr:city": "Jaipur", "addr:postcode": "302003", "addr:street": "Badi Chaupar", "amenity": "police", "building": "yes", "name": "Police Thana Manak Chowk", "phone": "0141 260 1366", "website": "http://jaipurpolice.rajasthan.gov.in/"}}, {"type": "way", "id": 170101099, "nodes": [1812532498, 4806799788, 4806799787, 1812532499, 1812532533, 1812532437, 4806792993, 1812532491, 2777043248, 2777043247, 2777043246, 2777043245, 2777043244, 1812532498], "tags": {"amenity": "marketplace", "building": "yes", "name": "Sari market"}}, {"type": "way", "id": 272783000, "nodes": [2777043249, 2777043250, 2777043251, 2777043252, 2777043249], "tags": {"amenity": "place_of_worship", "building": "yes", "name": "Jama Masjid", "religion": "muslim"}}, {"type": "way", "id": 272783001, "nodes": [2777043254, 2777043255, 2777043256, 2777043257, 2777043258, 2777043259, 2777043260, 2777043261, 2777043262, 2777043263, 2777043264, 2777043254], "tags": {"leisure": "park", "name": "Ram Niwas Public Gardens", "name:etymology:wikidata": "Q18707728", "wikidata": "Q2770471"}}, {"type": "way", "id": 374811474, "nodes": [3781906922, 3781906923, 3781906924, 3781906925, 3781906922], "tags": {"addr:street": "Bhagwandas Road", "amenity": "cinema", "building": "yes", "image": "https://commons.wikimedia.org/wiki/File:Raj_Mandir_Cinema,_Jaipur_01.jpg#/media/File:Raj_Mandir_Cinema,_Jaipur_01.jpg", "name": "Rajmandir Cinemas", "screen": "1"}}, {"type": "way", "id": 374811875, "nodes": [3781914345, 9394577963, 9394577962, 3781914344, 3781914345], "tags": {"amenity": "school", "name": "St. Xavier Sr. Sec. School"}}, {"type": "way", "id": 375202964, "nodes": [3785882467, 3785882474, 3785882473, 3785882463, 3785882467], "tags": {"amenity": "fuel", "brand": "Hindustan Petroleum", "brand:wikidata": "Q1619375", "brand:wikipedia": "en:Hindustan Petroleum", "name": "HP", "official_name": "Hindustan Petroleum"}}, {"type": "way", "id": 375731343, "nodes": [6083274406, 3790779831, 3790779830, 3790779834, 6083274406], "tags": {"leisure": "swimming_pool"}}, {"type": "way", "id": 375731344, "nodes": [3790779848, 3790779827, 3790779826, 3790779833, 3790779839, 3790779848], "tags": {"leisure": "pitch"}}, {"type": "way", "id": 375734747, "nodes": [3790822315, 3790822309, 3790822305, 3790822313, 3790822315], "tags": {"leisure": "swimming_pool"}}, {"type": "way", "id": 375734749, "nodes": [3790822307, 3790822300, 3790822298, 3790822304, 3790822307], "tags": {"leisure": "swimming_pool"}}, {"type": "way", "id": 375734807, "nodes": [3790824185, 3790824186, 3790824144, 3790824156, 3790824185], "tags": {"amenity": "fuel", "brand": "Bharat Petroleum", "brand:wikidata": "Q854826", "brand:wikipedia": "en:Bharat Petroleum", "name": "Bharat Petroleum"}}, {"type": "way", "id": 375734973, "nodes": [9394577960, 3790823362, 3790823011, 3790822847, 3790822787, 9394577961, 9394577960], "tags": {"leisure": "pitch", "sport": "soccer"}}, {"type": "way", "id": 394056630, "nodes": [3785947552, 3785947550, 3785947549, 3785947551, 3785947552], "tags": {"leisure": "park", "name": "Public Park"}}, {"type": "way", "id": 631482914, "nodes": [5963505969, 5963505970, 5963505971, 5963505972, 5963505969], "tags": {"amenity": "parking"}}, {"type": "way", "id": 705659655, "nodes": [6630529409, 6630529423, 6630529406, 6630529414, 6630529420, 6630529404, 6630529411, 6630529418, 6630529425, 6630529408, 6630529416, 6630529422, 6630529409], "tags": {"leisure": "pitch", "sport": "cricket"}}, {"type": "way", "id": 705659656, "nodes": [6630529413, 6630529403, 6630529410, 6630529417, 6630529424, 6630529407, 6630529415, 6630529421, 6630529405, 6630529412, 6630529419, 6630529426, 6630529413], "tags": {"leisure": "pitch"}}, {"type": "way", "id": 874048708, "nodes": [8137399262, 8137399260, 8137399263, 8137399264, 8137399265, 8137399269, 8137399266, 8137399262], "tags": {"amenity": "parking", "fee": "yes", "layer": "-1", "parking": "underground", "payment:cash": "yes"}}, {"type": "way", "id": 1018539427, "nodes": [9394577949, 9394577950, 9394577951, 9394577952, 9394577949], "tags": {"leisure": "playground"}}, {"type": "way", "id": 1018539428, "nodes": [9394577957, 9394577958, 3790822301, 9394577959, 9394577955, 9394577956, 9394577957], "tags": {"leisure": "pitch", "sport": "cricket"}}, {"type": "way", "id": 1018539435, "nodes": [9394577983, 9394577984, 9394577982, 9394577985, 9394577986, 9394577983], "tags": {"leisure": "pitch", "sport": "tennis", "surface": "paved"}}, {"type": "way", "id": 1018539436, "nodes": [9394577987, 9394577988, 9394577989, 9394577990, 9394577987], "tags": {"hoops": "6", "leisure": "pitch", "sport": "basketball", "surface": "paved"}}, {"type": "way", "id": 1018539446, "nodes": [9394578011, 9394578012, 9394578013, 9394578014, 9394578011], "tags": {"leisure": "playground"}}]}