{"version": 0.6, "generator": "Overpass API 0.7.60.6 e2dc3e5b", "osm3s": {"timestamp_osm_base": "2023-06-12T11:19:39Z", "copyright": "The data included in this document is from www.openstreetmap.org. The data is made available under ODbL."}, "elements": [{"type": "node", "id": 1877213120, "lat": 28.1106917, "lon": 76.8355452, "tags": {"addr:city": "tapukara", "bus": "yes", "departures_board": "no", "highway": "bus_stop", "name": "Nuh Wala Adda", "operator": "autohub", "public_transport": "platform", "ref": "AHS1"}}, {"type": "node", "id": 1877862843, "lat": 28.1272266, "lon": 76.879519, "tags": {"bus": "yes", "highway": "bus_stop", "name": "Gwalda Mod", "public_transport": "platform"}}, {"type": "node", "id": 4121092719, "lat": 28.1038071, "lon": 76.8301932, "tags": {"bus": "yes", "highway": "bus_stop", "public_transport": "platform", "ref": "Gopali Chowk"}}, {"type": "node", "id": 9986944356, "lat": 28.1084111, "lon": 76.8316097, "tags": {"bus": "yes", "highway": "bus_stop", "public_transport": "platform", "ref": "puarana adda tapukara"}}, {"type": "node", "id": 10244059309, "lat": 28.1047344, "lon": 77.0095947, "tags": {"bus": "yes", "highway": "bus_stop", "name": "nuh chowk", "public_transport": "platform"}}, {"type": "node", "id": 10244059316, "lat": 28.1563997, "lon": 76.9601017, "tags": {"bus": "yes", "highway": "bus_stop", "name": "seelkho", "public_transport": "platform", "village_id": "seelkho"}}]}